SL-14 R/B               
1 16792U 86046B   26064.15982155  .00000584  00000+0  64489-4 0  9994
2 16792  82.4782  84.4633 0021721 241.1737 118.7298 14.85585122125739
SL-14 R/B               
1 16882U 86055B   26064.14950810  .00000583  00000+0  64331-4 0  9991
2 16882  82.5209 130.9415 0018577 351.9653  36.9946 14.85637809118699
AJISAI (EGS)            
1 16908U 86061A   26064.13183687 -.00000074  00000+0  16565-3 0  9997
2 16908  50.0080 107.3637 0011255 275.2758 126.4374 12.44515586467438
COSMOS 1812             
1 17295U 87003A   26064.27669567  .04336969 -12478-5  60814-3 0  9998
2 17295  82.4662 200.6099 0009455 280.2072  79.8157 16.34939650143779
SL-14 R/B               
1 17567U 87024B   26064.12754595  .00000560  00000+0  61013-4 0  9998
2 17567  82.5252  97.0530 0016672 276.4401  83.4917 14.86126931 87459
COSMOS 1833             
1 17589U 87027A   26064.11737284 -.00000134  00000+0 -45754-4 0  9993
2 17589  70.9232 335.6279 0024484 220.8898 139.0388 14.13055821  9673
SL-16 R/B               
1 17590U 87027B   26064.03370830 -.00000168  00000+0 -59456-4 0  9997
2 17590  71.0015 286.3071 0003628 152.8419 207.2895 14.17165983 14681
SL-14 R/B               
1 17912U 87038B   26064.12017197  .00000552  00000+0  61180-4 0  9993
2 17912  82.5010 301.1127 0019292 175.3000 184.8401 14.85364445 78557
COSMOS 1844             
1 17973U 87041A   26064.15739880 -.00000112  00000+0 -33055-4 0  9991
2 17973  70.8996  43.7346 0029749  24.6286 335.6248 14.14553051  2949
SL-14 R/B               
1 18153U 87055B   26063.76114967  .00000814  00000+0  90921-4 0  9998
2 18153  82.5029 353.6749 0021563  33.5975 326.6603 14.85622648 69201
COSMOS 1867             
1 18187U 87060A   26064.10985379  .00000010  00000+0  41241-4 0  9992
2 18187  65.0117 319.5309 0014418 278.3689  81.5761 14.31502252 19281
SL-14 R/B               
1 18749U 88001B   26064.09289198  .00000760  00000+0  85142-4 0  9996
2 18749  82.5145 199.6826 0016648 252.1539 107.7861 14.85520904 41349
