CCSDS_OMM_VERS = 2.0
CREATION_DATE  = 
ORIGINATOR     = 

OBJECT_NAME    = SL-14 R/B
OBJECT_ID      = 1986-046B
CENTER_NAME    = EARTH
REF_FRAME      = TEME
TIME_SYSTEM    = UTC
MEAN_ELEMENT_THEORY = SGP/SGP4

EPOCH          = 2026-03-05T03:50:08.581920
MEAN_MOTION    = 14.85585122
ECCENTRICITY   = .0021721
INCLINATION    = 82.4782
RA_OF_ASC_NODE = 84.4633
ARG_OF_PERICENTER = 241.1737
MEAN_ANOMALY   = 118.7298

EPHEMERIS_TYPE = 0
CLASSIFICATION_TYPE = U
NORAD_CAT_ID   = 16792
ELEMENT_SET_NO = 999
REV_AT_EPOCH   = 12573
BSTAR          = .64489E-4
MEAN_MOTION_DOT = .584E-5
MEAN_MOTION_DDOT = 0

CCSDS_OMM_VERS = 2.0
CREATION_DATE  = 
ORIGINATOR     = 

OBJECT_NAME    = SL-14 R/B
OBJECT_ID      = 1986-055B
CENTER_NAME    = EARTH
REF_FRAME      = TEME
TIME_SYSTEM    = UTC
MEAN_ELEMENT_THEORY = SGP/SGP4

EPOCH          = 2026-03-05T03:35:17.499840
MEAN_MOTION    = 14.85637809
ECCENTRICITY   = .0018577
INCLINATION    = 82.5209
RA_OF_ASC_NODE = 130.9415
ARG_OF_PERICENTER = 351.9653
MEAN_ANOMALY   = 36.9946

EPHEMERIS_TYPE = 0
CLASSIFICATION_TYPE = U
NORAD_CAT_ID   = 16882
ELEMENT_SET_NO = 999
REV_AT_EPOCH   = 11869
BSTAR          = .64331E-4
MEAN_MOTION_DOT = .583E-5
MEAN_MOTION_DDOT = 0

CCSDS_OMM_VERS = 2.0
CREATION_DATE  = 
ORIGINATOR     = 

OBJECT_NAME    = AJISAI (EGS)
OBJECT_ID      = 1986-061A
CENTER_NAME    = EARTH
REF_FRAME      = TEME
TIME_SYSTEM    = UTC
MEAN_ELEMENT_THEORY = SGP/SGP4

EPOCH          = 2026-03-05T03:09:50.705568
MEAN_MOTION    = 12.44515586
ECCENTRICITY   = .0011255
INCLINATION    = 50.0080
RA_OF_ASC_NODE = 107.3637
ARG_OF_PERICENTER = 275.2758
MEAN_ANOMALY   = 126.4374

EPHEMERIS_TYPE = 0
CLASSIFICATION_TYPE = U
NORAD_CAT_ID   = 16908
ELEMENT_SET_NO = 999
REV_AT_EPOCH   = 46743
BSTAR          = .16565E-3
MEAN_MOTION_DOT = -.74E-6
MEAN_MOTION_DDOT = 0

CCSDS_OMM_VERS = 2.0
CREATION_DATE  = 
ORIGINATOR     = 

OBJECT_NAME    = COSMOS 1812
OBJECT_ID      = 1987-003A
CENTER_NAME    = EARTH
REF_FRAME      = TEME
TIME_SYSTEM    = UTC
MEAN_ELEMENT_THEORY = SGP/SGP4

EPOCH          = 2026-03-05T06:38:26.505888
MEAN_MOTION    = 16.34939650
ECCENTRICITY   = .0009455
INCLINATION    = 82.4662
RA_OF_ASC_NODE = 200.6099
ARG_OF_PERICENTER = 280.2072
MEAN_ANOMALY   = 79.8157

EPHEMERIS_TYPE = 0
CLASSIFICATION_TYPE = U
NORAD_CAT_ID   = 17295
ELEMENT_SET_NO = 999
REV_AT_EPOCH   = 14377
BSTAR          = .60814E-3
MEAN_MOTION_DOT = .4336969E-1
MEAN_MOTION_DDOT = -.12478E-5

CCSDS_OMM_VERS = 2.0
CREATION_DATE  = 
ORIGINATOR     = 

OBJECT_NAME    = SL-14 R/B
OBJECT_ID      = 1987-024B
CENTER_NAME    = EARTH
REF_FRAME      = TEME
TIME_SYSTEM    = UTC
MEAN_ELEMENT_THEORY = SGP/SGP4

EPOCH          = 2026-03-05T03:03:39.970080
MEAN_MOTION    = 14.86126931
ECCENTRICITY   = .0016672
INCLINATION    = 82.5252
RA_OF_ASC_NODE = 97.0530
ARG_OF_PERICENTER = 276.4401
MEAN_ANOMALY   = 83.4917

EPHEMERIS_TYPE = 0
CLASSIFICATION_TYPE = U
NORAD_CAT_ID   = 17567
ELEMENT_SET_NO = 999
REV_AT_EPOCH   = 8745
BSTAR          = .61013E-4
MEAN_MOTION_DOT = .56E-5
MEAN_MOTION_DDOT = 0

CCSDS_OMM_VERS = 2.0
CREATION_DATE  = 
ORIGINATOR     = 

OBJECT_NAME    = COSMOS 1833
OBJECT_ID      = 1987-027A
CENTER_NAME    = EARTH
REF_FRAME      = TEME
TIME_SYSTEM    = UTC
MEAN_ELEMENT_THEORY = SGP/SGP4

EPOCH          = 2026-03-05T02:49:01.013376
MEAN_MOTION    = 14.13055821
ECCENTRICITY   = .0024484
INCLINATION    = 70.9232
RA_OF_ASC_NODE = 335.6279
ARG_OF_PERICENTER = 220.8898
MEAN_ANOMALY   = 139.0388

EPHEMERIS_TYPE = 0
CLASSIFICATION_TYPE = U
NORAD_CAT_ID   = 17589
ELEMENT_SET_NO = 999
REV_AT_EPOCH   = 967
BSTAR          = -.45754E-4
MEAN_MOTION_DOT = -.134E-5
MEAN_MOTION_DDOT = 0

CCSDS_OMM_VERS = 2.0
CREATION_DATE  = 
ORIGINATOR     = 

OBJECT_NAME    = SL-16 R/B
OBJECT_ID      = 1987-027B
CENTER_NAME    = EARTH
REF_FRAME      = TEME
TIME_SYSTEM    = UTC
MEAN_ELEMENT_THEORY = SGP/SGP4

EPOCH          = 2026-03-05T00:48:32.397120
MEAN_MOTION    = 14.17165983
ECCENTRICITY   = .0003628
INCLINATION    = 71.0015
RA_OF_ASC_NODE = 286.3071
ARG_OF_PERICENTER = 152.8419
MEAN_ANOMALY   = 207.2895

EPHEMERIS_TYPE = 0
CLASSIFICATION_TYPE = U
NORAD_CAT_ID   = 17590
ELEMENT_SET_NO = 999
REV_AT_EPOCH   = 1468
BSTAR          = -.59456E-4
MEAN_MOTION_DOT = -.168E-5
MEAN_MOTION_DDOT = 0

CCSDS_OMM_VERS = 2.0
CREATION_DATE  = 
ORIGINATOR     = 

OBJECT_NAME    = SL-14 R/B
OBJECT_ID      = 1987-038B
CENTER_NAME    = EARTH
REF_FRAME      = TEME
TIME_SYSTEM    = UTC
MEAN_ELEMENT_THEORY = SGP/SGP4

EPOCH          = 2026-03-05T02:53:02.858208
MEAN_MOTION    = 14.85364445
ECCENTRICITY   = .0019292
INCLINATION    = 82.5010
RA_OF_ASC_NODE = 301.1127
ARG_OF_PERICENTER = 175.3000
MEAN_ANOMALY   = 184.8401

EPHEMERIS_TYPE = 0
CLASSIFICATION_TYPE = U
NORAD_CAT_ID   = 17912
ELEMENT_SET_NO = 999
REV_AT_EPOCH   = 7855
BSTAR          = .6118E-4
MEAN_MOTION_DOT = .552E-5
MEAN_MOTION_DDOT = 0

CCSDS_OMM_VERS = 2.0
CREATION_DATE  = 
ORIGINATOR     = 

OBJECT_NAME    = COSMOS 1844
OBJECT_ID      = 1987-041A
CENTER_NAME    = EARTH
REF_FRAME      = TEME
TIME_SYSTEM    = UTC
MEAN_ELEMENT_THEORY = SGP/SGP4

EPOCH          = 2026-03-05T03:46:39.256320
MEAN_MOTION    = 14.14553051
ECCENTRICITY   = .0029749
INCLINATION    = 70.8996
RA_OF_ASC_NODE = 43.7346
ARG_OF_PERICENTER = 24.6286
MEAN_ANOMALY   = 335.6248

EPHEMERIS_TYPE = 0
CLASSIFICATION_TYPE = U
NORAD_CAT_ID   = 17973
ELEMENT_SET_NO = 999
REV_AT_EPOCH   = 294
BSTAR          = -.33055E-4
MEAN_MOTION_DOT = -.112E-5
MEAN_MOTION_DDOT = 0

CCSDS_OMM_VERS = 2.0
CREATION_DATE  = 
ORIGINATOR     = 

OBJECT_NAME    = SL-14 R/B
OBJECT_ID      = 1987-055B
CENTER_NAME    = EARTH
REF_FRAME      = TEME
TIME_SYSTEM    = UTC
MEAN_ELEMENT_THEORY = SGP/SGP4

EPOCH          = 2026-03-04T18:16:03.331488
MEAN_MOTION    = 14.85622648
ECCENTRICITY   = .0021563
INCLINATION    = 82.5029
RA_OF_ASC_NODE = 353.6749
ARG_OF_PERICENTER = 33.5975
MEAN_ANOMALY   = 326.6603

EPHEMERIS_TYPE = 0
CLASSIFICATION_TYPE = U
NORAD_CAT_ID   = 18153
ELEMENT_SET_NO = 999
REV_AT_EPOCH   = 6920
BSTAR          = .90921E-4
MEAN_MOTION_DOT = .814E-5
MEAN_MOTION_DDOT = 0

CCSDS_OMM_VERS = 2.0
CREATION_DATE  = 
ORIGINATOR     = 

OBJECT_NAME    = COSMOS 1867
OBJECT_ID      = 1987-060A
CENTER_NAME    = EARTH
REF_FRAME      = TEME
TIME_SYSTEM    = UTC
MEAN_ELEMENT_THEORY = SGP/SGP4

EPOCH          = 2026-03-05T02:38:11.367456
MEAN_MOTION    = 14.31502252
ECCENTRICITY   = .0014418
INCLINATION    = 65.0117
RA_OF_ASC_NODE = 319.5309
ARG_OF_PERICENTER = 278.3689
MEAN_ANOMALY   = 81.5761

EPHEMERIS_TYPE = 0
CLASSIFICATION_TYPE = U
NORAD_CAT_ID   = 18187
ELEMENT_SET_NO = 999
REV_AT_EPOCH   = 1928
BSTAR          = .41241E-4
MEAN_MOTION_DOT = .1E-6
MEAN_MOTION_DDOT = 0

CCSDS_OMM_VERS = 2.0
CREATION_DATE  = 
ORIGINATOR     = 

OBJECT_NAME    = SL-14 R/B
OBJECT_ID      = 1988-001B
CENTER_NAME    = EARTH
REF_FRAME      = TEME
TIME_SYSTEM    = UTC
MEAN_ELEMENT_THEORY = SGP/SGP4

EPOCH          = 2026-03-05T02:13:45.867072
MEAN_MOTION    = 14.85520904
ECCENTRICITY   = .0016648
INCLINATION    = 82.5145
RA_OF_ASC_NODE = 199.6826
ARG_OF_PERICENTER = 252.1539
MEAN_ANOMALY   = 107.7861

EPHEMERIS_TYPE = 0
CLASSIFICATION_TYPE = U
NORAD_CAT_ID   = 18749
ELEMENT_SET_NO = 999
REV_AT_EPOCH   = 4134
BSTAR          = .85142E-4
MEAN_MOTION_DOT = .76E-5
MEAN_MOTION_DDOT = 0

